STARLINK-36324          
1 68091U 26042Y   26089.26726065  .00582818  00000+0  33954-2 0  9994
2 68091  53.1590  91.9377 0004456 203.1817 156.9003 15.76263702  5330
STARLINK-36896          
1 68092U 26042Z   26089.33334491  .00058418  00000+0  38312-3 0  9999
2 68092  53.1586  91.5040 0001052 107.7957 318.8066 15.75209260  5372
STARLINK-36251          
1 68093U 26042AA  26089.33334491  .00055873  00000+0  28507-3 0  9997
2 68093  53.1570  91.0992 0001268  61.9230 201.9667 15.80850915  5364
STARLINK-36787          
1 68094U 26042AB  26089.45338772  .00254299  00000+0  16087-2 0  9999
2 68094  53.1587  90.9615 0001334  81.0779 279.0392 15.75309730  5356
STARLINK-36790          
1 68095U 26042AC  26089.11798775 -.00620495  00000+0 -42900-2 0  9996
2 68095  53.1589  92.4188 0003559 134.4676 225.6636 15.75525520  5301
STARLINK-36328          
1 68096U 26042AD  26089.58336806 -.00012856  00000+0 -79758-4 0  9990
2 68096  53.1589  89.9457 0001256 107.9302  89.9851 15.75256258  5405
STARLINK-36853          
1 68097U 26042AE  26087.57934027  .00403030  00000+0  19383-2 0  9999
2 68097  53.1585  99.8798 0001547  92.2219 267.8981 15.81023297  5061
GLOBAL-34               
1 68098U 26043A   26089.01521913  .00016512  00000+0  53141-3 0  9994
2 68098  42.0222 318.1532 0003687  67.6458 292.4770 15.31905044  3688
STARLINK-37022          
1 68101U 26044A   26089.58336806 -.01985877  00000+0 -22002-1 0  9999
2 68101  97.2850  50.7298 0001835  97.9197  47.5608 15.66116158  4766
STARLINK-37046          
1 68102U 26044B   26089.58336806 -.01981629  00000+0 -21476-1 0  9995
2 68102  97.2850  50.7346 0001875 100.2471  55.3455 15.66653591  4762
STARLINK-37018          
1 68103U 26044C   26089.58336806 -.01985664  00000+0 -21300-1 0  9995
2 68103  97.2851  50.7390 0001918  98.4544  66.9777 15.66913078  4719
STARLINK-37041          
1 68104U 26044D   26089.58336806 -.01979397  00000+0 -20506-1 0  9999
2 68104  97.2850  50.7441 0001871 101.6957  75.4485 15.67757163  4712
STARLINK-37021          
1 68105U 26044E   26089.58336806 -.01976498  00000+0 -22120-1 0  9993
2 68105  97.2851  50.7406 0001988  96.6956  74.7399 15.65848364  4714
STARLINK-37024          
1 68106U 26044F   26089.58336806 -.01980703  00000+0 -20388-1 0  9992
2 68106  97.2849  50.7499 0001928 103.0392  89.0804 15.67915150  4715
STARLINK-37005          
1 68107U 26044G   26089.58336806 -.01985907  00000+0 -21087-1 0  9991
2 68107  97.2852  50.7411 0001923 100.0721  71.1056 15.67163166  4715
STARLINK-37017          
1 68108U 26044H   26089.58336806 -.01980611  00000+0 -19844-1 0  9997
2 68108  97.2848  50.7529 0001922  99.1882  98.8488 15.68571987  4716
STARLINK-36833          
1 68109U 26044J   26089.58336806 -.01978720  00000+0 -19465-1 0  9995
2 68109  97.2845  50.7566 0001994 105.5857 102.8640 15.69011506  4766
STARLINK-36830          
1 68110U 26044K   26089.58336806 -.01976267  00000+0 -19548-1 0  9993
2 68110  97.2850  50.7549 0001903 105.3234  98.4234 15.68876475  4764
STARLINK-36791          
1 68111U 26044L   26088.33531555 -.00265080  00000+0 -18534-2 0  9992
2 68111  97.2842  49.4581 0002644  63.2809 296.8727 15.74914516  4576
STARLINK-36893          
1 68112U 26044M   26089.58336806 -.01979881  00000+0 -18980-1 0  9999
2 68112  97.2843  50.7642 0001962 105.3329 120.2615 15.69636092  4769
STARLINK-36937          
1 68113U 26044N   26089.58336806 -.01977794  00000+0 -18706-1 0  9997
2 68113  97.2844  50.7676 0001923 106.0487 127.0307 15.69956813  4712
STARLINK-36229          
1 68114U 26044P   26088.33352414  .00106424  00000+0  70574-3 0  9997
2 68114  97.2847  49.4591 0002103  73.2895 286.8601 15.75181785  4576
STARLINK-36392          
1 68115U 26044Q   26089.58336806 -.01972598  00000+0 -20873-1 0  9994
2 68115  97.2848  50.7627 0001960 104.1209 119.5431 15.67225339  4765
STARLINK-36805          
1 68116U 26044R   26089.58336806 -.01973772  00000+0 -19755-1 0  9997
2 68116  97.2844  50.7673 0001939 106.0119 128.1197 15.68585316  4760
STARLINK-36844          
1 68117U 26044S   26089.34653385  .01001575  00000+0  57180-2 0  9992
2 68117  97.2843  50.5303 0001911 150.5878 209.5496 15.76575994  4737
STARLINK-36789          
1 68118U 26044T   26089.58336806 -.01979009  00000+0 -17553-1 0  9992
2 68118  97.2845  50.7768 0001746 104.6702 152.2613 15.71489569  4719
STARLINK-36850          
1 68119U 26044U   26089.47395605  .00358278  00000+0  24831-2 0  9997
2 68119  97.2847  50.6631 0007402   5.2756 354.8585 15.73413650  4752
STARLINK-36868          
1 68120U 26044V   26089.15398505  .00742174  00000+0  44302-2 0  9993
2 68120  97.2839  50.3332 0002273 138.5040 221.6399 15.75849204  4706
STARLINK-36855          
1 68121U 26044W   26089.58336806 -.01973545  00000+0 -18165-1 0  9995
2 68121  97.2843  50.7821 0001900 104.8910 162.9018 15.70600714  4719
STARLINK-36366          
1 68122U 26044X   26088.32716236  .00224864  00000+0  14649-2 0  9990
2 68122  97.2847  49.4680 0001306  92.0601 268.0814 15.75256832  4576
STARLINK-36922          
1 68123U 26044Y   26089.58336806 -.01980954  00000+0 -17626-1 0  9990
2 68123  97.2843  50.7900 0001765 108.6773 178.0265 15.71417536  4763
STARLINK-36938          
1 68124U 26044Z   26089.58336806 -.00098298  00000+0 -66583-3 0  9999
2 68124  97.2861  50.8450 0001544  83.7565 329.0390 15.75186859  4764
STARLINK-36839          
1 68125U 26044AA  26089.58336806 -.01973820  00000+0 -17528-1 0  9997
2 68125  97.2845  50.7874 0001794 108.4326 172.4033 15.71452776  4712
ECHOSTAR 25             
1 68126U 26045A   26089.44446456  .00000041  00000+0  00000+0 0  9995
2 68126   0.0493 282.2216 0002477 111.8772 184.8342  1.00273007   203
ICOR SV                 
1 68127U 26046A   26089.39445281  .00496154  12145-4  71528-3 0  9995
2 68127 123.0761 300.2405 0100212 224.8583 134.4358 15.95585500  2898
GUOWANG GROUP 20 OBJECT*
1 68129U 26047A   26086.61766448 -.00000101  00000+0  34814-4 0  9995
2 68129  50.0073 357.5704 0001326 229.8596 130.2189 13.95400488  2083
GUOWANG GROUP 20 OBJECT*
1 68130U 26047B   26085.75628566 -.00000072  00000+0  55036-4 0  9995
2 68130  50.0066   1.0171 0000428 307.3036  52.7826 13.96591410  1957
GUOWANG GROUP 20 OBJECT*
1 68131U 26047C   26085.82615450 -.00000111  00000+0  27090-4 0  9995
2 68131  49.9996   0.7054 0000048  49.5998 310.4907 13.96862690  1970
GUOWANG GROUP 20 OBJECT*
1 68132U 26047D   26083.82212781 -.00000102  00000+0  32409-4 0  9994
2 68132  50.0048   8.7665 0002416   7.3102 352.7836 14.00513037  1680
GUOWANG GROUP 20 OBJECT*
1 68133U 26047E   26089.09734757 -.00000106  00000+0  29276-4 0  9994
2 68133  49.9775 347.4440 0030769  44.8262 315.5120 14.01483768  2439
GUOWANG GROUP 20 OBJECT*
1 68134U 26047F   26083.10517479 -.00000032  00000+0  77668-4 0  9997
2 68134  50.0123  11.6502 0000475 222.9253 137.1614 14.01903676  1585
GUOWANG GROUP 20 OBJECT*
1 68135U 26047G   26085.74432800  .00000018  00000+0  11069-3 0  9999
2 68135  50.0409   0.8903 0004806 213.0056 147.0548 14.01583953  1962
GUOWANG GROUP 20 OBJECT*
1 68136U 26047H   26084.03205513 -.00000099  00000+0  33918-4 0  9998
2 68136  49.9530   7.8688 0014532 103.7924 256.4596 14.01074305  1715
GUOWANG GROUP 20 OBJECT*
1 68137U 26047J   26082.88983446 -.00000137  00000+0  91454-5 0  9991
2 68137  50.0081  12.5219 0000175 124.6965 235.3956 14.02259904  1568
SHIYAN-30 03            
1 68139U 26048A   26089.72115752  .00003722  00000+0  36527-3 0  9991
2 68139  35.0014  18.0225 0002936  15.4638 344.6156 14.91738280  2641
SHIYAN-30 04            
1 68140U 26048B   26089.72185454  .00003569  00000+0  35027-3 0  9992
2 68140  34.9929  18.0230 0001458  11.5146 348.5592 14.91746638  2644
STARLINK-36604          
1 68142U 26049A   26089.49206884 -.00035853  00000+0 -18821-3 0  9996
2 68142  97.2835 109.7740 0002333  89.6740 270.4796 15.80694864  2693
STARLINK-36995          
1 68143U 26049B   26089.55459955  .00203657  00000+0  10360-2 0  9999
2 68143  97.2840 109.8420 0001490 116.5905 243.5516 15.80886570  2702
STARLINK-37020          
1 68144U 26049C   26089.55309801  .00243784  00000+0  12341-2 0  9990
2 68144  97.2841 109.8442 0001437 107.1129 253.0297 15.80888501  2701
STARLINK-36244          
1 68145U 26049D   26089.58336806 -.00011024  00000+0 -73049-4 0  9995
2 68145  97.2843 109.8520 0001581  74.8137  42.5429 15.75215537  3986
STARLINK-36980          
1 68146U 26049E   26089.48904402  .00259602  00000+0  13114-2 0  9997
2 68146  97.2843 109.7775 0001218  74.2889 285.8513 15.80894666  2698
STARLINK-37055          
1 68147U 26049F   26089.55384924  .00211551  00000+0  10752-2 0  9993
2 68147  97.2841 109.8425 0001550 107.9408 252.2029 15.80885046  2704
STARLINK-36981          
1 68148U 26049G   26089.48754006  .00388371  00000+0  19293-2 0  9992
2 68148  97.2840 109.7792 0001277  78.6401 281.5011 15.80930598  2690
STARLINK-36992          
1 68149U 26049H   26089.55009301  .00256687  00000+0  12984-2 0  9996
2 68149  97.2844 109.8477 0001437  86.6669 273.4764 15.80873167  2704
STARLINK-37060          
1 68150U 26049J   26089.54933963  .00224217  00000+0  11375-2 0  9994
2 68150  97.2844 109.8488 0001012  58.2226 301.9141 15.80891666  2701
STARLINK-37073          
1 68151U 26049K   26089.54858924  .00247334  00000+0  12511-2 0  9996
2 68151  97.2844 109.8498 0001658  75.0601 285.0851 15.80896000  2700
STARLINK-37049          
1 68152U 26049L   26089.54782936  .00392740  00000+0  19449-2 0  9995
2 68152  97.2842 109.8506 0001207 116.6278 243.5114 15.80988015  2700
STARLINK-37072          
1 68153U 26049M   26089.48414244 -.00786385  00000+0 -48630-2 0  9991
2 68153  97.2844 109.7840 0001183 119.3101 240.8285 15.79059556  2695
STARLINK-36241          
1 68154U 26049N   26089.58336806 -.00055321  00000+0 -37152-3 0  9997
2 68154  97.2846 109.8611 0001670  94.5385  44.8036 15.75245249  3985
